[{"OBJECT_NAME":"STARLINK-34177","OBJECT_ID":"2025-113A","EPOCH":"2026-03-09T08:14:10.433184","MEAN_MOTION":15.3019832,"ECCENTRICITY":9.426e-5,"INCLINATION":53.159,"RA_OF_ASC_NODE":92.6323,"ARG_OF_PERICENTER":85.0968,"MEAN_ANOMALY":275.014,"EPHEMERIS_TYPE":0,"CLASSIFICATION_TYPE":"U","NORAD_CAT_ID":64170,"ELEMENT_SET_NO":999,"REV_AT_EPOCH":4501,"BSTAR":0.00093257618,"MEAN_MOTION_DOT":0.00027361,"MEAN_MOTION_DDOT":0},{"OBJECT_NAME":"OBJECT J","OBJECT_ID":"2025-155J","EPOCH":"2026-03-09T22:09:22.347648","MEAN_MOTION":15.2758258,"ECCENTRICITY":0.00088188,"INCLINATION":97.4475,"RA_OF_ASC_NODE":37.3123,"ARG_OF_PERICENTER":150.071,"MEAN_ANOMALY":210.1035,"EPHEMERIS_TYPE":0,"CLASSIFICATION_TYPE":"U","NORAD_CAT_ID":64884,"ELEMENT_SET_NO":999,"REV_AT_EPOCH":6559,"BSTAR":0.00051444498,"MEAN_MOTION_DOT":0.00013827,"MEAN_MOTION_DDOT":0}]
